448P/PANSTARRS,e,12.1450,161.7543,218.8008,3.636383,0.1421346,0.41815902,144.5299,06/19.0/2025,2000,g 16.0,4.0
# From MPEC 2024-DC6
449P/Leonard,e,15.4701,242.5220,176.7657,3.599839,0.1443044,0.47977113,240.4992,06/19.0/2025,2000,g 16.0,4.0
# From MPC184420
450P/LONEOS,e,10.6815,124.2672,23.5412,7.937142,0.0440766,0.31430039,333.8780,06/19.0/2025,2000,g  6.5,4.0
# From MPEC 2023-HD1
451P/Christensen,e,26.4848,300.8683,186.7919,6.350038,0.0615942,0.55922954,57.5312,06/19.0/2025,2000,g 15.5,4.0
# From MPEC 2024-NE4
452P/Sheppard-Jewitt,e,6.4219,123.6657,37.0961,7.310960,0.0498589,0.42855379,39.1402,06/19.0/2025,2000,g  9.0,4.0
# From MPEC 2023-RF3
453P/WISE-Lemmon,e,27.0598,42.8923,70.8985,5.467365,0.0770969,0.58314270,64.6564,06/19.0/2025,2000,g 14.0,4.0
# From MPEC 2023-CD7
454P/PANSTARRS,e,19.8095,54.5859,20.1942,4.211428,0.1140407,0.36142975,120.6940,06/19.0/2025,2000,g 14.0,4.0
# From MPEC 2022-Y14
455P/PANSTARRS,e,14.1349,146.1804,237.5348,3.153365,0.1760122,0.30444462,148.7426,06/19.0/2025,2000,g 17.0,4.0
# From MPC182892
456P/PANSTARRS,e,16.9652,243.1447,233.0056,3.169675,0.1746554,0.11592261,11.3643,06/19.0/2025,2000,g 13.5,4.0
# From MPEC 2025-A40
457P/Lemmon-PANSTARRS,e,5.2257,175.9634,104.3186,2.645161,0.2291004,0.11839077,69.4006,06/19.0/2025,2000,g 15.5,4.0
# From MPEC 2023-HD1
458P/Jahn,e,13.6222,1.5615,104.9334,3.859254,0.1300017,0.31725364,125.0907,06/19.0/2025,2000,g 17.3,4.0
# From MPEC 2024-N80
459P/Catalina,e,7.1737,256.9876,205.2252,3.240425,0.1689667,0.57785573,143.3389,06/19.0/2025,2000,g 15.5,4.0
# From MPEC 2023-G14
460P/PANSTARRS,e,18.9000,180.5168,351.9351,3.027239,0.1871259,0.66421810,273.9880,06/19.0/2025,2000,g 21.0,4.0
# From MPEC 2024-GJ3
461P/WISE,e,18.3991,194.3772,174.8311,3.144373,0.1767678,0.56957713,239.2610,06/19.0/2025,2000,g 18.5,4.0
# From MPEC 2024-BE0
462P/LONEOS-PANSTARRS,e,7.0458,322.6667,4.2256,4.862862,0.0919107,0.57845759,96.7657,06/19.0/2025,2000,g 17.0,4.0
# From MPEC 2024-GJ3
463P/NEOWISE,e,29.2959,283.2178,216.3408,2.974135,0.1921601,0.82588722,156.0633,06/19.0/2025,2000,g 18.0,4.0
# From MPEC 2024-Q20
464P/PANSTARRS,e,21.6733,309.5781,267.5280,4.683994,0.0972254,0.28057239,81.9295,06/19.0/2025,2000,g 10.5,4.0
# From MPEC 2024-NE4
465P/Hill,e,25.8618,217.9577,140.9854,6.008513,0.0669196,0.61316366,51.6648,06/19.0/2025,2000,g 12.5,4.0
# From MPEC 2024-JU4
466P/PANSTARRS,e,12.8351,118.0600,197.9548,4.041390,0.1213132,0.47783518,93.5156,06/19.0/2025,2000,g 14.0,4.0
# From MPEC 2025-A40
467P/LINEAR-Grauer,e,2.4793,43.2630,267.4848,5.826259,0.0700841,0.05450600,65.5518,06/19.0/2025,2000,g  9.0,4.0
# From MPEC 2024-O39
468P/SidingSpring,e,50.4518,356.1259,322.5772,7.117616,0.0519042,0.44498481,29.8913,06/19.0/2025,2000,g 11.5,4.0
# From MPEC 2025-A40
469P/PANSTARRS,e,20.1723,178.9674,43.4951,4.342474,0.1089176,0.30799833,341.2213,06/19.0/2025,2000,g 13.5,4.0
# From MPC182892
470P/PANSTARRS,e,8.8441,246.1694,151.6912,4.463876,0.1045047,0.38938344,57.5037,06/19.0/2025,2000,g 15.5,4.0
# From MPC182892
471P/LINEAR-Lemmon,e,4.7970,283.3123,94.7908,5.694009,0.0725399,0.62771292,39.6909,06/19.0/2025,2000,g 12.0,4.0
# From MPC184421
472P/NEAT-LINEAR,e,10.8241,205.8493,218.8409,7.780497,0.0454143,0.56462245,15.4337,06/19.0/2025,2000,g 10.5,4.0
# From MPEC 2024-MB8
473P/NEAT,e,56.8970,22.1899,42.9367,7.972474,0.0437839,0.82359763,20.9621,06/19.0/2025,2000,g 13.5,4.0
# From MPEC 2024-B74
474P/Hogan,e,1.0970,26.7496,11.2618,3.130491,0.1779448,0.18806155,125.3328,06/19.0/2025,2000,g 15.5,4.0
# From MPEC 2024-O39
475P/Spacewatch-LINEAR,e,14.5237,147.3604,40.4086,7.317608,0.0497909,0.44279479,19.0373,06/19.0/2025,2000,g 11.0,4.0
# From MPC184421
476P/PANSTARRS,e,19.0052,57.0501,46.7334,4.775044,0.0944578,0.34588749,23.1914,06/19.0/2025,2000,g 12.5,4.0
# From MPEC 2024-GJ3
477P/PANSTARRS,e,8.9138,59.1463,305.8781,3.002055,0.1894856,0.41752990,102.4115,06/19.0/2025,2000,g 14.5,4.0
# From MPEC 2024-L77
478P/ATLAS,e,12.5246,127.2632,13.2419,3.647895,0.1414622,0.34374492,58.4009,06/19.0/2025,2000,g 13.5,4.0
# From MPEC 2024-PC5
479P/Elenin,e,15.3996,295.8324,263.5066,5.622998,0.0739183,0.77890343,30.2874,06/19.0/2025,2000,g 15.0,4.0
# From MPC182893
480P/PANSTARRS,e,13.7167,229.9815,214.4121,4.610718,0.0995523,0.24632525,78.3739,06/19.0/2025,2000,g 12.0,4.0
# From MPEC 2025-A40
481P/Lemmon-PANSTARRS,e,6.0826,93.5503,356.7992,4.681565,0.0973010,0.34346933,69.1532,06/19.0/2025,2000,g 13.5,4.0
# From MPEC 2024-JU4
482P/PANSTARRS,e,24.4869,126.0779,339.7237,3.756837,0.1353538,0.49236562,101.2225,06/19.0/2025,2000,g 13.5,4.0
# From MPEC 2024-R10
483P-A/PANSTARRS,e,14.1889,199.2838,49.1372,3.194952,0.1725868,0.22237235,209.0561,06/19.0/2025,2000,g 13.5,4.0
# From MPEC 2024-R10
483P-B/PANSTARRS,e,14.1897,199.2831,49.1273,3.194877,0.1725929,0.22231368,209.0919,06/19.0/2025,2000,g 17.0,4.0
# From MPEC 2024-DD5
484P/Spacewatch,e,14.4743,265.3815,240.7973,3.756958,0.1353473,0.43292816,225.2440,06/19.0/2025,2000,g 16.0,4.0
# From MPEC 2024-JU4
485P/Sheppard-Tholen,e,10.0161,261.6447,196.0978,6.850804,0.0549657,0.41717944,36.4858,06/19.0/2025,2000,g 13.0,4.0
# From MPEC 2024-R10
486P/Leonard,e,2.2095,219.0235,93.9449,3.627832,0.1426374,0.36354968,10.8638,06/19.0/2025,2000,g 14.5,4.0
# From MPC184421
487P/SidingSpring,e,39.3660,49.2036,0.8431,5.162283,0.0840314,0.64846240,20.2857,06/19.0/2025,2000,g 13.5,4.0
# From MPEC 2024-UA9
488P/NEAT-PANSTARRS,e,11.3727,323.9510,1.7021,3.740378,0.1362482,0.55109519,53.8881,06/19.0/2025,2000,g 16.5,4.0
# From MPEC 2024-Q14
489P/Denning,e,4.0263,20.6095,109.4283,4.424199,0.1059137,0.64712885,342.1709,06/19.0/2025,2000,g 15.5,4.0
# From MPEC 2024-YC7
490P/ATLAS,e,12.2664,307.6007,332.5426,3.029952,0.1868747,0.64718118,49.3013,06/19.0/2025,2000,g 21.0,4.0
# From MPC184421
491P/Spacewatch-PANSTARRS,e,9.3663,311.6844,298.8824,5.013384,0.0878027,0.25869517,25.1102,06/19.0/2025,2000,g  9.5,4.0
# From MPC182893
492P/LINEAR,e,11.4011,11.3054,40.9833,5.759857,0.0712995,0.69062420,23.7821,06/19.0/2025,2000,g 15.0,4.0
# From MPC182893
493P/LONEOS,e,24.1118,1.1062,83.1983,7.166438,0.0513747,0.46650565,349.2577,06/19.0/2025,2000,g 12.0,2.0
# From MPEC 2024-RQ6
494P/PANSTARRS,e,7.7900,245.0430,48.8786,3.794487,0.1333443,0.35683709,51.2049,06/19.0/2025,2000,g 16.0,4.0
# From MPEC 2025-A40
495P/Christensen,e,26.3548,291.6176,141.3370,4.755914,0.0950283,0.27250211,348.0852,06/19.0/2025,2000,g 11.5,4.0
# From MPC184421
496P/Hill,e,14.8144,63.5863,42.2449,6.099077,0.0654347,0.73421681,6.5909,06/19.0/2025,2000,g 14.0,4.0
# From MPC184421
497P/Spacewatch-PANSTARRS,e,10.4367,40.3727,32.4033,5.615301,0.0740704,0.63046214,9.1613,06/19.0/2025,2000,g 17.5,4.0
# From MPC184421
498P/LINEAR,e,14.4828,279.2309,179.0800,4.592825,0.1001346,0.57230495,18.2334,06/19.0/2025,2000,g 14.7,4.0
# From MPC184421
499P/Catalina,e,24.5822,139.3088,2.5572,3.017594,0.1880238,0.69145759,20.0448,06/19.0/2025,2000,g 18.5,4.0
# From MPC184421
500P/PANSTARRS,e,2.3015,111.5293,46.6896,3.415600,0.1561362,0.37587262,12.3429,06/19.0/2025,2000,g 16.0,4.0
# From MPC182882
501P/Rankin,e,10.0468,139.7798,53.6939,2.228055,0.2963571,0.69844619,127.6400,06/19.0/2025,2000,g 21.5,4.0
# From MPC184421
502P/NEAT,e,11.3996,264.4845,37.7426,7.998116,0.0435735,0.47118839,357.9480,06/19.0/2025,2000,g  8.5,4.0
# From MPC184422
503P/PANSTARRS,e,10.5748,268.5822,17.9521,3.657910,0.1408817,0.48130936,340.3373,06/19.0/2025,2000,g 15.0,4.0
# From MPC107687
1I/`Oumuamua,h,09/09.4886/2017,122.6778,24.5997,241.6845,1.199252,0.255240,2000,23.0,2.0
# From MPEC 2023-L37
2I/Borisov,h,12/08.5548/2019,44.0527,308.1480,209.1251,3.356633,2.006548,2000,11.0,4.0
